[{"OBJECT_NAME":"STARLINK-5127","OBJECT_ID":"2022-125AY","EPOCH":"2026-03-09T15:40:58.467072","MEAN_MOTION":15.08838433,"ECCENTRICITY":0.00012578,"INCLINATION":53.2177,"RA_OF_ASC_NODE":203.8593,"ARG_OF_PERICENTER":92.7743,"MEAN_ANOMALY":267.3393,"EPHEMERIS_TYPE":0,"CLASSIFICATION_TYPE":"U","NORAD_CAT_ID":54010,"ELEMENT_SET_NO":999,"REV_AT_EPOCH":18960,"BSTAR":-2.780255e-6,"MEAN_MOTION_DOT":-3.32e-6,"MEAN_MOTION_DDOT":0},{"OBJECT_NAME":"CZ-2C DEB","OBJECT_ID":"2011-030F","EPOCH":"2026-03-09T18:15:45.395712","MEAN_MOTION":15.09717889,"ECCENTRICITY":0.00353547,"INCLINATION":98.459,"RA_OF_ASC_NODE":350.9929,"ARG_OF_PERICENTER":109.3287,"MEAN_ANOMALY":305.6279,"EPHEMERIS_TYPE":0,"CLASSIFICATION_TYPE":"U","NORAD_CAT_ID":37735,"ELEMENT_SET_NO":999,"REV_AT_EPOCH":78307,"BSTAR":0.0021378399,"MEAN_MOTION_DOT":0.00035046,"MEAN_MOTION_DDOT":0}]
